{
    "links": {
        "self": "http://www.neowsapp.com/rest/v1/neo/3749349?api_key=iIulBulltgU6a56xZRHN4H3l9WmuAYTsLGpBGhQ2"
    },
    "id": "3749349",
    "neo_reference_id": "3749349",
    "name": "(2016 GF134)",
    "designation": "2016 GF134",
    "nasa_jpl_url": "http://ssd.jpl.nasa.gov/sbdb.cgi?sstr=3749349",
    "absolute_magnitude_h": 24.7,
    "estimated_diameter": {
        "kilometers": {
            "estimated_diameter_min": 0.0305179233,
            "estimated_diameter_max": 0.0682401509
        },
        "meters": {
            "estimated_diameter_min": 30.5179232594,
            "estimated_diameter_max": 68.2401509401
        },
        "miles": {
            "estimated_diameter_min": 0.0189629525,
            "estimated_diameter_max": 0.0424024508
        },
        "feet": {
            "estimated_diameter_min": 100.1244233463,
            "estimated_diameter_max": 223.8850168104
        }
    },
    "is_potentially_hazardous_asteroid": false,
    "close_approach_data": [
        {
            "close_approach_date": "2016-04-11",
            "close_approach_date_full": "2016-Apr-11 15:41",
            "epoch_date_close_approach": 1460389260000,
            "relative_velocity": {
                "kilometers_per_second": "11.2856209633",
                "kilometers_per_hour": "40628.2354679002",
                "miles_per_hour": "25244.8055328183"
            },
            "miss_distance": {
                "astronomical": "0.0614662261",
                "lunar": "23.9103619529",
                "kilometers": "9195216.501498407",
                "miles": "5713642.5889037366"
            },
            "orbiting_body": "Earth"
        },
        {
            "close_approach_date": "2117-04-09",
            "close_approach_date_full": "2117-Apr-09 02:41",
            "epoch_date_close_approach": 4647379260000,
            "relative_velocity": {
                "kilometers_per_second": "12.3583832568",
                "kilometers_per_hour": "44490.1797244663",
                "miles_per_hour": "27644.4675071274"
            },
            "miss_distance": {
                "astronomical": "0.0628626717",
                "lunar": "24.4535792913",
                "kilometers": "9404121.788829279",
                "miles": "5843450.3151868902"
            },
            "orbiting_body": "Earth"
        },
        {
            "close_approach_date": "2119-07-31",
            "close_approach_date_full": "2119-Jul-31 07:36",
            "epoch_date_close_approach": 4720232160000,
            "relative_velocity": {
                "kilometers_per_second": "18.4542004818",
                "kilometers_per_hour": "66435.1217343032",
                "miles_per_hour": "41280.2010576286"
            },
            "miss_distance": {
                "astronomical": "0.4662573813",
                "lunar": "181.3741213257",
                "kilometers": "69751111.114257831",
                "miles": "43341330.6821908278"
            },
            "orbiting_body": "Earth"
        }
    ],
    "orbital_data": {
        "orbit_id": "8",
        "orbit_determination_date": "2017-04-06 08:26:45",
        "first_observation_date": "2016-04-05",
        "last_observation_date": "2016-04-15",
        "data_arc_in_days": 10,
        "observations_used": 32,
        "orbit_uncertainty": "8",
        "minimum_orbit_intersection": ".0536173",
        "jupiter_tisserand_invariant": "4.156",
        "epoch_osculation": "2457485.5",
        "eccentricity": ".4047649665847864",
        "semi_major_axis": "1.642015590338574",
        "inclination": "16.17065836529854",
        "ascending_node_longitude": "13.41303071273821",
        "orbital_period": "768.5362222777235",
        "perihelion_distance": ".9773852047834827",
        "perihelion_argument": "225.5262288792946",
        "aphelion_distance": "2.306645975893665",
        "perihelion_time": "2457523.350513375305",
        "mean_anomaly": "342.2699510834692",
        "mean_motion": ".4684229442472627",
        "equinox": "J2000",
        "orbit_class": {
            "orbit_class_type": "APO",
            "orbit_class_description": "Near-Earth asteroid orbits which cross the Earth’s orbit similar to that of 1862 Apollo",
            "orbit_class_range": "a (semi-major axis) > 1.0 AU; q (perihelion) < 1.017 AU"
        }
    },
    "is_sentry_object": false
}